NORAD_CAT_ID,OBJECT_NAME,OBJECT_TYPE,EPOCH,MEAN_MOTION,ECCENTRICITY,INCLINATION,RA_OF_ASC_NODE,ARG_OF_PERICENTER,MEAN_ANOMALY,BSTAR,MEAN_MOTION_DOT,MEAN_MOTION_DDOT,TLE_LINE0,TLE_LINE1,TLE_LINE2,SEMIMAJOR_AXIS,PERIOD,APOGEE,PERIGEE,DECAYED
55411.0,STARLINK-5605,PAYLOAD,2024-06-18 19:55:38,14.98329266,0.0003218,69.9987,210.2231,269.9899,90.0891,1.5391e-05,9.1e-07,0.0,0 STARLINK-5605,1 55411U 23014W   24170.83030214  .00000091  00000-0  15391-4 0  9994,2 55411  69.9987 210.2231 0003218 269.9899  90.0891 14.98329266 77857,6950.195,96.107,574.297,569.824,0.0
55411.0,STARLINK-5605,PAYLOAD,2024-06-19 11:56:58,14.9832728,0.0003297,69.9984,208.5399,269.755,90.3232,3.8048e-05,3.61e-06,0.0,0 STARLINK-5605,1 55411U 23014W   24171.49790350  .00000361  00000-0  38048-4 0  9995,2 55411  69.9984 208.5399 0003297 269.7550  90.3232 14.98327280 77012,6950.201,96.107,574.358,569.775,0.0
55411.0,STARLINK-5605,PAYLOAD,2024-06-20 11:58:59,14.9833005,0.0003327,69.9984,206.0152,269.9489,90.1289,1.519e-05,8.8e-07,0.0,0 STARLINK-5605,1 55411U 23014W   24172.49930287  .00000088  00000-0  15190-4 0  9990,2 55411  69.9984 206.0152 0003327 269.9489  90.1289 14.98330050 78109,6950.193,96.107,574.37,569.745,0.0
55411.0,STARLINK-5605,PAYLOAD,2024-06-21 12:01:00,14.9833341,0.0003388,69.9984,203.4895,269.0743,91.0028,6.0755e-05,6.32e-06,0.0,0 STARLINK-5605,1 55411U 23014W   24173.50069832  .00000632  00000-0  60755-4 0  9994,2 55411  69.9984 203.4895 0003388 269.0743  91.0028 14.98333410 77311,6950.182,96.107,574.402,569.693,0.0
55411.0,STARLINK-5605,PAYLOAD,2024-06-22 12:03:01,14.98329744,0.0003385,69.9988,200.9648,268.4195,91.6576,2.6773e-06,-6.1e-07,0.0,0 STARLINK-5605,1 55411U 23014W   24174.50210132 -.00000061  00000-0  26773-5 0  9996,2 55411  69.9988 200.9648 0003385 268.4195  91.6576 14.98329744 77469,6950.194,96.107,574.411,569.706,0.0
55411.0,STARLINK-5605,PAYLOAD,2024-06-23 12:05:02,14.98332953,0.0003424,69.9991,198.4402,270.4782,89.5985,1.197e-05,5e-07,0.0,0 STARLINK-5605,1 55411U 23014W   24175.50349760  .00000050  00000-0  11970-4 0  9996,2 55411  69.9991 198.4402 0003424 270.4782  89.5985 14.98332953 77614,6950.184,96.107,574.429,569.669,0.0
55411.0,STARLINK-5605,PAYLOAD,2024-06-24 10:30:54,14.98332531,0.0003462,69.9991,196.0837,270.2295,89.8467,5.7112e-05,5.88e-06,0.0,0 STARLINK-5605,1 55411U 23014W   24176.43813473  .00000588  00000-0  57112-4 0  9990,2 55411  69.9991 196.0837 0003462 270.2295  89.8467 14.98332531 78698,6950.185,96.107,574.456,569.644,0.0
55411.0,STARLINK-5605,PAYLOAD,2024-06-25 04:08:23,14.98328623,0.0003383,69.9993,194.2325,267.6601,92.4171,-1.5266e-05,-2.75e-06,0.0,0 STARLINK-5605,1 55411U 23014W   24177.17249839 -.00000275  00000-0 -15266-4 0  9990,2 55411  69.9993 194.2325 0003383 267.6601  92.4171 14.98328623 77862,6950.197,96.107,574.413,569.711,0.0
55411.0,STARLINK-5605,PAYLOAD,2024-06-25 10:32:56,14.98328141,0.0003395,69.9994,193.5593,268.135,91.942,-2.0573e-05,-3.39e-06,0.0,0 STARLINK-5605,1 55411U 23014W   24177.43953905 -.00000339  00000-0 -20573-4 0  9993,2 55411  69.9994 193.5593 0003395 268.1350  91.9420 14.98328141 78847,6950.199,96.107,574.423,569.704,0.0
55411.0,STARLINK-5605,PAYLOAD,2024-06-26 04:10:24,14.98331103,0.0003354,69.9995,191.7082,264.4502,95.6275,-4.9161e-06,-1.52e-06,0.0,0 STARLINK-5605,1 55411U 23014W   24178.17389630 -.00000152  00000-0 -49161-5 0  9991,2 55411  69.9995 191.7082 0003354 264.4502  95.6275 14.98331103 78014,6950.189,96.107,574.386,569.723,0.0
55411.0,STARLINK-5605,PAYLOAD,2024-06-26 10:34:56,14.98331343,0.0003387,69.9993,191.0347,266.0239,94.0533,-1.4496e-06,-1.1e-06,0.0,0 STARLINK-5605,1 55411U 23014W   24178.44093605 -.00000110  00000-0 -14496-5 0  9992,2 55411  69.9993 191.0347 0003387 266.0239  94.0533 14.98331343 78993,6950.189,96.107,574.408,569.7,0.0
55411.0,STARLINK-5605,PAYLOAD,2024-06-27 04:12:25,14.98329977,0.0003485,69.9991,189.1833,267.7215,92.3545,5.3286e-05,5.43e-06,0.0,0 STARLINK-5605,1 55411U 23014W   24179.17529536  .00000543  00000-0  53286-4 0  9997,2 55411  69.9991 189.1833 0003485 267.7215  92.3545 14.98329977 78163,6950.193,96.107,574.48,569.636,0.0
55411.0,STARLINK-5605,PAYLOAD,2024-06-27 10:36:57,14.98331271,0.0003503,69.999,188.5092,269.9748,90.101,6.8394e-05,7.23e-06,0.0,0 STARLINK-5605,1 55411U 23014W   24179.44233428  .00000723  00000-0  68394-4 0  9995,2 55411  69.9990 188.5092 0003503 269.9748  90.1010 14.98331271 79140,6950.189,96.107,574.489,569.619,0.0
55411.0,STARLINK-5605,PAYLOAD,2024-06-28 04:14:26,14.98330922,0.0003482,69.9989,186.6576,269.8551,90.2209,3.0945e-05,2.76e-06,0.0,0 STARLINK-5605,1 55411U 23014W   24180.17669535  .00000276  00000-0  30945-4 0  9993,2 55411  69.9989 186.6576 0003482 269.8551  90.2209 14.98330922 78312,6950.19,96.107,574.475,569.635,0.0
55411.0,STARLINK-5605,PAYLOAD,2024-06-28 10:38:58,14.98331708,0.0003467,69.999,185.9848,269.1921,90.8841,2.9823e-05,2.63e-06,0.0,0 STARLINK-5605,1 55411U 23014W   24180.44373466  .00000263  00000-0  29823-4 0  9997,2 55411  69.9990 185.9848 0003467 269.1921  90.8841 14.98331708 79294,6950.188,96.107,574.462,569.643,0.0
55411.0,STARLINK-5605,PAYLOAD,2024-06-29 04:16:25,14.98351924,0.0003507,69.9992,184.1334,266.631,93.4448,0.00023729,2.741e-05,0.0,0 STARLINK-5605,1 55411U 23014W   24181.17807567  .00002741  00000-0  23729-3 0  9993,2 55411  69.9992 184.1334 0003507 266.6310  93.4448 14.98351924 78468,6950.125,96.106,574.428,569.553,0.0
55411.0,STARLINK-5605,PAYLOAD,2024-06-29 10:40:57,14.98354935,0.00035,69.999,183.46,266.6104,93.4655,0.00025478,2.95e-05,0.0,0 STARLINK-5605,1 55411U 23014W   24181.44510983  .00002950  00000-0  25478-3 0  9991,2 55411  69.9990 183.4600 0003500 266.6104  93.4655 14.98354935 79442,6950.116,96.105,574.413,569.548,0.0
55411.0,STARLINK-5605,PAYLOAD,2024-06-29 17:05:30,14.98342405,0.0003391,69.9988,182.7855,275.5289,84.5483,8.1217e-05,8.76e-06,0.0,0 STARLINK-5605,1 55411U 23014W   24181.71216046  .00000876  00000-0  81217-4 0  9993,2 55411  69.9988 182.7855 0003391 275.5289  84.5483 14.98342405 78543,6950.155,96.106,574.376,569.663,0.0
55411.0,STARLINK-5605,PAYLOAD,2024-06-30 04:18:28,14.98325981,0.0003091,70.0008,181.613,259.3959,100.6852,-1.6171e-05,-2.86e-06,0.0,0 STARLINK-5605,1 55411U 23014W   24182.17949352 -.00000286  00000-0 -16171-4 0  9991,2 55411  70.0008 181.6130 0003091 259.3959 100.6852 14.98325981 78612,6950.205,96.107,574.219,569.922,0.0
55411.0,STARLINK-5605,PAYLOAD,2024-06-30 10:43:00,14.98320717,0.000331,69.9996,180.9366,269.5799,90.4981,-9.5771e-05,-1.235e-05,0.0,0 STARLINK-5605,1 55411U 23014W   24182.44653899 -.00001235  00000-0 -95771-4 0  9997,2 55411  69.9996 180.9366 0003310 269.5799  90.4981 14.98320717 79596,6950.222,96.108,574.387,569.786,0.0
55411.0,STARLINK-5605,PAYLOAD,2024-06-30 17:07:33,14.98324091,0.0003494,69.9993,180.2621,271.7082,88.3677,-7.0616e-05,-9.35e-06,0.0,0 STARLINK-5605,1 55411U 23014W   24182.71357679 -.00000935  00000-0 -70616-4 0  9991,2 55411  69.9993 180.2621 0003494 271.7082  88.3677 14.98324091 79635,6950.211,96.107,574.505,569.648,0.0
55411.0,STARLINK-5605,PAYLOAD,2024-07-01 04:20:29,14.98338231,0.0003367,69.9997,179.0851,266.7888,93.2886,-0.0001996,-2.474e-05,0.0,0 STARLINK-5605,1 55411U 23014W   24183.18089251 -.00002474  00000-0 -19960-3 0  9995,2 55411  69.9997 179.0851 0003367 266.7888  93.2886 14.98338231 78768,6950.167,96.106,574.373,569.692,0.0
55411.0,STARLINK-5605,PAYLOAD,2024-07-01 09:08:53,14.98334251,0.0003624,69.9996,178.58,272.7432,87.3313,-0.00019988,-2.478e-05,0.0,0 STARLINK-5605,1 55411U 23014W   24183.38117458 -.00002478  00000-0 -19988-3 0  9992,2 55411  69.9996 178.5800 0003624 272.7432  87.3313 14.98334251 79738,6950.18,96.107,574.563,569.526,0.0
55411.0,STARLINK-5605,PAYLOAD,2024-07-02 04:22:30,14.98322285,0.0003644,69.999,176.5588,272.2049,87.8693,0.00013144,1.475e-05,0.0,0 STARLINK-5605,1 55411U 23014W   24184.18229397  .00001475  00000-0  13144-3 0  9999,2 55411  69.9990 176.5588 0003644 272.2049  87.8693 14.98322285 78913,6950.217,96.107,574.614,569.549,0.0
55411.0,STARLINK-5605,PAYLOAD,2024-07-02 09:10:54,14.98325481,0.0003643,69.999,176.0538,272.0725,88.0017,0.00014196,1.601e-05,0.0,0 STARLINK-5605,1 55411U 23014W   24184.38257259  .00001601  00000-0  14196-3 0  9998,2 55411  69.9990 176.0538 0003643 272.0725  88.0017 14.98325481 79882,6950.207,96.107,574.604,569.54,0.0
55411.0,STARLINK-5605,PAYLOAD,2024-07-02 17:11:34,14.98325256,0.0003635,69.9991,175.2123,272.0096,88.0646,0.00011047,1.225e-05,0.0,0 STARLINK-5605,1 55411U 23014W   24184.71637448  .00001225  00000-0  11047-3 0  9991,2 55411  69.9991 175.2123 0003635 272.0096  88.0646 14.98325256 79930,6950.208,96.107,574.599,569.546,0.0
55411.0,STARLINK-5605,PAYLOAD,2024-07-03 04:24:31,14.98327095,0.0003625,69.9992,174.0341,271.8172,88.2572,8.1949e-05,8.85e-06,0.0,0 STARLINK-5605,1 55411U 23014W   24185.18369523  .00000885  00000-0  81949-4 0  9999,2 55411  69.9992 174.0341 0003625 271.8172  88.2572 14.98327095 79068,6950.202,96.107,574.586,569.547,0.0
55411.0,STARLINK-5605,PAYLOAD,2024-07-03 09:12:55,14.98329371,0.0003609,69.9992,173.5291,271.5739,88.5006,9.1221e-05,9.96e-06,0.0,0 STARLINK-5605,1 55411U 23014W   24185.38397374  .00000996  00000-0  91221-4 0  9993,2 55411  69.9992 173.5291 0003609 271.5739  88.5006 14.98329371 80037,6950.195,96.107,574.568,569.552,0.0
55411.0,STARLINK-5605,PAYLOAD,2024-07-04 04:26:31,14.98332666,0.0003592,69.9994,171.5092,271.2697,88.8051,4.1015e-05,3.96e-06,0.0,0 STARLINK-5605,1 55411U 23014W   24186.18509222  .00000396  00000-0  41015-4 0  9999,2 55411  69.9994 171.5092 0003592 271.2697  88.8051 14.98332666 79219,6950.185,96.107,574.546,569.553,0.0
55411.0,STARLINK-5605,PAYLOAD,2024-07-04 09:14:55,14.98334694,0.0003576,69.9994,171.004,270.9926,89.0823,6.2456e-05,6.52e-06,0.0,0 STARLINK-5605,1 55411U 23014W   24186.38536986  .00000652  00000-0  62456-4 0  9995,2 55411  69.9994 171.0040 0003576 270.9926  89.0823 14.98334694 80181,6950.178,96.107,574.529,569.558,0.0
